COMMENT,ORIGINATOR,NORAD_CAT_ID,OBJECT_NAME,OBJECT_TYPE,CLASSIFICATION_TYPE,INTLDES,EPOCH,EPOCH_MICROSECONDS,MEAN_MOTION,ECCENTRICITY,INCLINATION,RA_OF_ASC_NODE,ARG_OF_PERICENTER,MEAN_ANOMALY,EPHEMERIS_TYPE,ELEMENT_SET_NO,REV_AT_EPOCH,BSTAR,MEAN_MOTION_DOT,MEAN_MOTION_DDOT,FILE,TLE_LINE0,TLE_LINE1,TLE_LINE2,OBJECT_ID,OBJECT_NUMBER,SEMIMAJOR_AXIS,PERIOD,APOGEE,PERIGEE,DECAYED
"GENERATED VIA SPACETRACK.ORG API","18 SPCS","49140","STARLINK-3118","PAYLOAD","U","21082L","2023-11-04 22:37:09","841728","14.9832974","0.0002801","70","252.0909","266.9163","93.1676","0","999","11878","0.00006415","0.00000673","0","4070865","0 STARLINK-3118","1 49140U 21082L   23308.94247502  .00000673  00000-0  64150-4 0  9996","2 49140  70.0000 252.0909 0002801 266.9163  93.1676 14.98329740118782","2021-082L","49140","6950.194","96.107","574.005","570.112","0"
"GENERATED VIA SPACETRACK.ORG API","18 SPCS","55662","STARLINK-5479","PAYLOAD","U","23021AL","2023-11-04 23:38:46","61376","14.98338721","0.0002603","70","162.1925","268.0228","92.0633","0","999","4110","-0.00013515","-0.00001705","0","4072138","0 STARLINK-5479","1 55662U 23021AL  23308.98525534 -.00001705  00000-0 -13515-3 0  9992","2 55662  70.0000 162.1925 0002603 268.0228  92.0633 14.98338721 41103","2023-021AL","55662","6950.166","96.106","573.840","570.222","0"
"GENERATED VIA SPACETRACK.ORG API","18 SPCS","55657","STARLINK-5328","PAYLOAD","U","23021AF","2023-11-05 01:08:53","572128","14.98330821","0.0002661","70","161.9989","266.8947","93.1908","0","999","4081","-0.00001497","-0.00000272","0","4071200","0 STARLINK-5328","1 55657U 23021AF  23309.04784227 -.00000272  00000-0 -14970-4 0  9995","2 55657  70.0000 161.9989 0002661 266.8947  93.1908 14.98330821 40819","2023-021AF","55657","6950.190","96.107","573.905","570.206","0"
"GENERATED VIA SPACETRACK.ORG API","18 SPCS","55642","STARLINK-5478","PAYLOAD","U","23021Q","2023-11-05 01:45:16","364448","14.98335443","0.0002883","70","181.96","260.2148","99.8685","0","999","4032","0.000051548","0.00000522","0","4071384","0 STARLINK-5478","1 55642U 23021Q   23309.07310607  .00000522  00000-0  51548-4 0  9997","2 55642  70.0000 181.9600 0002883 260.2148  99.8685 14.98335443 40328","2023-021Q","55642","6950.176","96.107","574.045","570.037","0"
"GENERATED VIA SPACETRACK.ORG API","18 SPCS","55642","STARLINK-5478","PAYLOAD","U","23021Q","2023-11-05 01:45:16","364448","14.98335443","0.0002883","70","181.96","260.2148","99.8685","0","999","4062","0.000051548","0.00000522","0","4072138","0 STARLINK-5478","1 55642U 23021Q   23309.07310607  .00000522  00000-0  51548-4 0  9997","2 55642  70.0000 181.9600 0002883 260.2148  99.8685 14.98335443 40621","2023-021Q","55642","6950.176","96.107","574.045","570.037","0"
"GENERATED VIA SPACETRACK.ORG API","18 SPCS","55964","STARLINK-5895","PAYLOAD","U","23037BC","2023-11-05 03:30:18","718272","14.96718176","0.0002617","70","259.0575","264.8588","95.2272","0","999","3672","0.00004581","0.00000433","0","4071207","0 STARLINK-5895","1 55964U 23037BC  23309.14604998  .00000433  00000-0  45810-4 0  9994","2 55964  70.0000 259.0575 0002617 264.8588  95.2272 14.96718176 36723","2023-037BC","55964","6955.182","96.210","578.867","575.227","0"
"GENERATED VIA SPACETRACK.ORG API","18 SPCS","56813","STARLINK-6056","PAYLOAD","U","23078AY","2023-11-05 03:48:05","811840","14.98317207","0.0002844","70","341.4007","265.1395","94.9439","0","999","2479","-0.000059774","-0.00000806","0","4070962","0 STARLINK-6056","1 56813U 23078AY  23309.15840060 -.00000806  00000-0 -59774-4 0  9996","2 56813  70.0000 341.4007 0002844 265.1395  94.9439 14.98317207 24792","2023-078AY","56813","6950.232","96.108","574.074","570.121","0"
"GENERATED VIA SPACETRACK.ORG API","18 SPCS","55752","STARLINK-5613","PAYLOAD","U","23028M","2023-11-05 03:52:24","705984","14.98338855","0.0002771","70","241.4085","268.8918","91.1924","0","999","3789","0.00012337","0.0000138","0","4070965","0 STARLINK-5613","1 55752U 23028M   23309.16139706  .00001380  00000-0  12337-3 0  9990","2 55752  70.0000 241.4085 0002771 268.8918  91.1924 14.98338855 37893","2023-028M","55752","6950.166","96.106","573.956","570.105","0"
"GENERATED VIA SPACETRACK.ORG API","18 SPCS","55315","STARLINK-4623","PAYLOAD","U","23010AY","2023-11-05 04:36:49","659552","14.98330906","0.0002881","70","21.483","268.9749","91.108","0","999","4482","0.0000035337","-0.00000051","0","4070880","0 STARLINK-4623","1 55315U 23010AY  23309.19224143 -.00000051  00000-0  35337-5 0  9991","2 55315  70.0000  21.4830 0002881 268.9749  91.1080 14.98330906 44820","2023-010AY","55315","6950.190","96.107","574.057","570.053","0"
"GENERATED VIA SPACETRACK.ORG API","18 SPCS","55953","STARLINK-5889","PAYLOAD","U","23037AR","2023-11-05 04:40:51","345408","14.98329866","0.000261","70","261.6487","263.0204","97.0658","0","999","3666","0.000019514","0.0000014","0","4071419","0 STARLINK-5889","1 55953U 23037AR  23309.19503872  .00000140  00000-0  19514-4 0  9993","2 55953  70.0000 261.6487 0002610 263.0204  97.0658 14.98329866 36668","2023-037AR","55953","6950.193","96.107","573.872","570.244","0"
"GENERATED VIA SPACETRACK.ORG API","18 SPCS","56785","STARLINK-5931","PAYLOAD","U","23078U","2023-11-05 04:54:11","811168","14.98344109","0.0002655","70","341.5637","266.4314","93.6542","0","999","2479","-0.0001625","-0.00002032","0","4070976","0 STARLINK-5931","1 56785U 23078U   23309.20430337 -.00002032  00000-0 -16250-3 0  9996","2 56785  70.0000 341.5637 0002655 266.4314  93.6542 14.98344109 24797","2023-078U","56785","6950.149","96.106","573.860","570.169","0"
"GENERATED VIA SPACETRACK.ORG API","18 SPCS","56769","STARLINK-5978","PAYLOAD","U","23078C","2023-11-05 04:54:31","299552","14.98330845","0.0003026","70","1.4448","267.1013","92.98","0","999","2430","0.000045099","0.00000445","0","4070955","0 STARLINK-5978","1 56769U 23078C   23309.20452893  .00000445  00000-0  45099-4 0  9997","2 56769  70.0000   1.4448 0003026 267.1013  92.9800 14.98330845 24306","2023-078C","56769","6950.190","96.107","574.158","569.952","0"
"GENERATED VIA SPACETRACK.ORG API","18 SPCS","55947","STARLINK-5851","PAYLOAD","U","23037AK","2023-11-05 05:17:25","502784","14.98342676","0.0002601","70","281.2133","267.8401","92.246","0","999","3618","0.00019848","0.00002277","0","4071202","0 STARLINK-5851","1 55947U 23037AK  23309.22043406  .00002277  00000-0  19848-3 0  9994","2 55947  70.0000 281.2133 0002601 267.8401  92.2460 14.98342676 36187","2023-037AK","55947","6950.154","96.106","573.826","570.211","0"
"GENERATED VIA SPACETRACK.ORG API","18 SPCS","55758","STARLINK-5072","PAYLOAD","U","23028T","2023-11-05 05:34:33","28608","14.98341971","0.0002891","70","241.2545","269.9404","90.1423","0","999","3790","0.00018683","0.00002138","0","4072138","0 STARLINK-5072","1 55758U 23028T   23309.23232672  .00002138  00000-0  18683-3 0  9992","2 55758  70.0000 241.2545 0002891 269.9404  90.1423 14.98341971 37901","2023-028T","55758","6950.156","96.106","574.030","570.012","0"
"GENERATED VIA SPACETRACK.ORG API","18 SPCS","55961","STARLINK-5933","PAYLOAD","U","23037AZ","2023-11-05 06:46:59","561184","14.98338294","0.0002844","70","261.1473","268.823","91.2603","0","999","3668","0.00011614","0.00001293","0","4071912","0 STARLINK-5933","1 55961U 23037AZ  23309.28263381  .00001293  00000-0  11614-3 0  9992","2 55961  70.0000 261.1473 0002844 268.8230  91.2603 14.98338294 36681","2023-037AZ","55961","6950.167","96.106","574.009","570.056","0"
"GENERATED VIA SPACETRACK.ORG API","18 SPCS","55961","STARLINK-5933","PAYLOAD","U","23037AZ","2023-11-05 06:46:59","561184","14.98338294","0.0002844","70","261.1473","268.823","91.2603","0","999","3634","0.00011614","0.00001293","0","4072138","0 STARLINK-5933","1 55961U 23037AZ  23309.28263381  .00001293  00000-0  11614-3 0  9992","2 55961  70.0000 261.1473 0002844 268.8230  91.2603 14.98338294 36344","2023-037AZ","55961","6950.167","96.106","574.009","570.056","0"
"GENERATED VIA SPACETRACK.ORG API","18 SPCS","55959","STARLINK-5929","PAYLOAD","U","23037AX","2023-11-05 07:05:01","381632","14.98340611","0.0002845","70","261.1939","268.0073","92.0761","0","999","3634","0.00012067","0.00001347","0","4072138","0 STARLINK-5929","1 55959U 23037AX  23309.29515488  .00001347  00000-0  12067-3 0  9991","2 55959  70.0000 261.1939 0002845 268.0073  92.0761 14.98340611 36346","2023-037AX","55959","6950.160","96.106","574.002","570.048","0"
"GENERATED VIA SPACETRACK.ORG API","18 SPCS","55943","STARLINK-5932","PAYLOAD","U","23037AF","2023-11-05 07:11:21","734304","14.98349708","0.0002243","70","281.0883","269.8695","90.2207","0","999","3619","-0.00024588","-0.00003027","0","4071872","0 STARLINK-5932","1 55943U 23037AF  23309.29955711 -.00003027  00000-0 -24588-3 0  9991","2 55943  70.0000 281.0883 0002243 269.8695  90.2207 14.98349708 36193","2023-037AF","55943","6950.132","96.106","573.556","570.438","0"
"GENERATED VIA SPACETRACK.ORG API","18 SPCS","55943","STARLINK-5932","PAYLOAD","U","23037AF","2023-11-05 07:11:21","734304","14.98349708","0.0002243","70","281.0883","269.8695","90.2207","0","999","3585","-0.00024588","-0.00003027","0","4072138","0 STARLINK-5932","1 55943U 23037AF  23309.29955711 -.00003027  00000-0 -24588-3 0  9991","2 55943  70.0000 281.0883 0002243 269.8695  90.2207 14.98349708 35855","2023-037AF","55943","6950.132","96.106","573.556","570.438","0"
"GENERATED VIA SPACETRACK.ORG API","18 SPCS","55935","STARLINK-5920","PAYLOAD","U","23037X","2023-11-05 07:53:26","342304","14.98333268","0.0002281","70","281.1921","266.9332","93.1566","0","999","3585","0.00015895","0.00001804","0","4072138","0 STARLINK-5920","1 55935U 23037X   23309.32877711  .00001804  00000-0  15895-3 0  9999","2 55935  70.0000 281.1921 0002281 266.9332  93.1566 14.98333268 35852","2023-037X","55935","6950.183","96.107","573.633","570.462","0"
